prediction:
  azimuth_start: 96
  azimuth_stop: 8
  azimuth_tca: null
  max_elevation: 7
  tca: null
  time_start: 2020-04-20 17:36:00
  time_stop: 2020-04-20 17:46:00
satellite:
  name: Delfi-C3
  noradid: '32789'
  tle:
    line1: 1 32789U 08021G   20110.13324564 +.00001497 +00000-0 +10220-3 0  9991
    line2: 2 32789 097.4248 154.9935 0013004 152.8753 207.3157 15.07603306652874
station:
  name: DopTrack
  position:
    altitude: 95
    latitude: 51.9989
    longitude: 4.3733585
tracking:
  epoch: 2020-04-20 17:36:04.135499
  fca: 145868306.45399603
  fca_error: 1.135984121601866
  tca: 2020-04-20 17:41:34.737744
  tca_error: 0.11325536234783082
